[
   {
      "satellite_name": "SAUDISAT 1C (SO-50)",
      "tle_1": "1 27607U 02058C   24239.44465066  .00003473  00000+0  47954-3 0  9990",
      "tle_2": "2 27607  64.5571   5.5273 0025684  73.5294 286.8629 14.79467692166716"
   },
   {
      "satellite_name": "SAUDISAT 2",
      "tle_1": "1 28371U 04025F   24239.37234913  .00000965  00000+0  23105-3 0  9997",
      "tle_2": "2 28371  98.4901 213.6363 0025559 160.8007 199.4159 14.55641820 69713"
   },
   {
      "satellite_name": "SAUDISAT 3",
      "tle_1": "1 31118U 07012B   24239.59935034  .00000982  00000+0  17025-3 0  9998",
      "tle_2": "2 31118  98.0592 182.3884 0015301 161.0352 199.1427 14.70375807930783"
   },
   {
      "satellite_name": "PISAT",
      "tle_1": "1 41784U 16059B   24239.31425568  .00002405  00000+0  44135-3 0  9999",
      "tle_2": "2 41784  97.8330 258.1292 0031421 148.2489 212.0619 14.66276138422937"
   },
   {
      "satellite_name": "FLYING LAPTOP",
      "tle_1": "1 42831U 17042G   24239.57544554  .00004870  00000+0  44180-3 0  9999",
      "tle_2": "2 42831  97.3900  56.4756 0012294 192.9728 167.1180 14.95683552387658"
   },
   {
      "satellite_name": "SALSAT",
      "tle_1": "1 46495U 20068K   24239.40818414  .00010560  00000+0  57405-3 0  9999",
      "tle_2": "2 46495  97.8219 200.5508 0015806  77.1179 283.1817 15.14575881214932"
   }
]